[Satellite]
VERSION=1.1
NAME=TECHSAT 1B (GO-32)
NICKNAME=GO-32
TLE1=1 25397U 98043D   20157.70851329 -.00000022  00000-0  95348-5 0  9999
TLE2=2 25397  98.7280  99.2952 0002417  90.8486 269.2969 14.23685711137885
STATUS=0
